{
  "type": "FeatureCollection",
  "features": [
    {
      "type": "Feature",
      "properties": {
        "norad_id": 32376,
        "name": "COSMO-SKYMED 2",
        "group": "resource",
        "lat": -58.184833667410665,
        "lon": -16.390196656549755,
        "alt_km": 630.5254534476308,
        "timestamp": "2025-12-21T07:34:34.197205+00:00",
        "meta_object_name": "COSMO-SKYMED 2",
        "meta_object_id": "2007-059A",
        "meta_epoch": "2025-12-20T22:23:59.324928",
        "meta_mean_motion": 14.8215176,
        "meta_eccentricity": 0.00013473,
        "meta_inclination": 97.8804,
        "meta_ra_of_asc_node": 176.1337,
        "meta_arg_of_pericenter": 83.1708,
        "meta_mean_anomaly": 276.9659,
        "meta_ephemeris_type": 0,
        "meta_classification_type": "U",
        "meta_norad_cat_id": 32376,
        "meta_element_set_no": 999,
        "meta_rev_at_epoch": 97559,
        "meta_bstar": 5.1177759e-05,
        "meta_mean_motion_dot": 3.55e-06,
        "meta_mean_motion_ddot": 0,
        "tle_line1": "1 32376U 07059A   25354.93332552  .00000355  00000+0  51178-4 0  9991",
        "tle_line2": "2 32376  97.8804 176.1337 0001347  83.1708 276.9659 14.82151760975593"
      },
      "geometry": {
        "type": "Point",
        "coordinates": [
          -16.390196656549755,
          -58.184833667410665
        ]
      }
    },
    {
      "type": "Feature",
      "properties": {
        "norad_id": 32382,
        "name": "RADARSAT-2",
        "group": "resource",
        "lat": 19.643735272903267,
        "lon": -3.307767928300231,
        "alt_km": 791.5121898882826,
        "timestamp": "2025-12-21T07:34:34.197215+00:00",
        "meta_object_name": "RADARSAT-2",
        "meta_object_id": "2007-061A",
        "meta_epoch": "2025-12-20T23:05:13.233408",
        "meta_mean_motion": 14.29983502,
        "meta_eccentricity": 0.00011291,
        "meta_inclination": 98.579,
        "meta_ra_of_asc_node": 359.4325,
        "meta_arg_of_pericenter": 85.8176,
        "meta_mean_anomaly": 274.3136,
        "meta_ephemeris_type": 0,
        "meta_classification_type": "U",
        "meta_norad_cat_id": 32382,
        "meta_element_set_no": 999,
        "meta_rev_at_epoch": 94048,
        "meta_bstar": -2.9849341e-05,
        "meta_mean_motion_dot": -1.21e-06,
        "meta_mean_motion_ddot": 0,
        "tle_line1": "1 32382U 07061A   25354.96195872 -.00000121  00000+0 -29849-4 0  9999",
        "tle_line2": "2 32382  98.5790 359.4325 0001129  85.8176 274.3136 14.29983502940481"
      },
      "geometry": {
        "type": "Point",
        "coordinates": [
          -3.307767928300231,
          19.643735272903267
        ]
      }
    },
    {
      "type": "Feature",
      "properties": {
        "norad_id": 32783,
        "name": "CARTOSAT-2A",
        "group": "resource",
        "lat": -77.64031727413717,
        "lon": 83.54830298529724,
        "alt_km": 635.7086663607415,
        "timestamp": "2025-12-21T07:34:34.197225+00:00",
        "meta_object_name": "CARTOSAT-2A",
        "meta_object_id": "2008-021A",
        "meta_epoch": "2025-12-20T22:11:45.186720",
        "meta_mean_motion": 14.78950711,
        "meta_eccentricity": 0.00112096,
        "meta_inclination": 97.7923,
        "meta_ra_of_asc_node": 44.4929,
        "meta_arg_of_pericenter": 338.0558,
        "meta_mean_anomaly": 22.0172,
        "meta_ephemeris_type": 0,
        "meta_classification_type": "U",
        "meta_norad_cat_id": 32783,
        "meta_element_set_no": 999,
        "meta_rev_at_epoch": 95245,
        "meta_bstar": 8.2012663e-05,
        "meta_mean_motion_dot": 5.55e-06,
        "meta_mean_motion_ddot": 0,
        "tle_line1": "1 32783U 08021A   25354.92482855  .00000555  00000+0  82013-4 0  9998",
        "tle_line2": "2 32783  97.7923  44.4929 0011209 338.0558  22.0172 14.78950711952451"
      },
      "geometry": {
        "type": "Point",
        "coordinates": [
          83.54830298529724,
          -77.64031727413717
        ]
      }
    },
    {
      "type": "Feature",
      "properties": {
        "norad_id": 33320,
        "name": "HUANJING 1A (HJ-1A)",
        "group": "resource",
        "lat": -75.48135803914795,
        "lon": 14.538813985823301,
        "alt_km": 624.6220096693787,
        "timestamp": "2025-12-21T07:34:34.197234+00:00",
        "meta_object_name": "HUANJING 1A (HJ-1A)",
        "meta_object_id": "2008-041A",
        "meta_epoch": "2025-12-20T22:12:41.516928",
        "meta_mean_motion": 14.83417427,
        "meta_eccentricity": 0.00195178,
        "meta_inclination": 97.6536,
        "meta_ra_of_asc_node": 342.8819,
        "meta_arg_of_pericenter": 8.468,
        "meta_mean_anomaly": 351.686,
        "meta_ephemeris_type": 0,
        "meta_classification_type": "U",
        "meta_norad_cat_id": 33320,
        "meta_element_set_no": 999,
        "meta_rev_at_epoch": 93197,
        "meta_bstar": 0.00014193845,
        "meta_mean_motion_dot": 1.117e-05,
        "meta_mean_motion_ddot": 0,
        "tle_line1": "1 33320U 08041A   25354.92548052  .00001117  00000+0  14194-3 0  9999",
        "tle_line2": "2 33320  97.6536 342.8819 0019517   8.4680 351.6860 14.83417427931972"
      },
      "geometry": {
        "type": "Point",
        "coordinates": [
          14.538813985823301,
          -75.48135803914795
        ]
      }
    },
    {
      "type": "Feature",
      "properties": {
        "norad_id": 33321,
        "name": "HUANJING 1B (HJ-1B)",
        "group": "resource",
        "lat": 52.8421228232298,
        "lon": 177.1315242896093,
        "alt_km": 609.7048402243745,
        "timestamp": "2025-12-21T07:34:34.197244+00:00",
        "meta_object_name": "HUANJING 1B (HJ-1B)",
        "meta_object_id": "2008-041B",
        "meta_epoch": "2025-12-20T22:54:50.088096",
        "meta_mean_motion": 14.82842697,
        "meta_eccentricity": 0.00379964,
        "meta_inclination": 97.6396,
        "meta_ra_of_asc_node": 346.5856,
        "meta_arg_of_pericenter": 49.8273,
        "meta_mean_anomaly": 310.6258,
        "meta_ephemeris_type": 0,
        "meta_classification_type": "U",
        "meta_norad_cat_id": 33321,
        "meta_element_set_no": 999,
        "meta_rev_at_epoch": 93199,
        "meta_bstar": 0.00016256156,
        "meta_mean_motion_dot": 1.281e-05,
        "meta_mean_motion_ddot": 0,
        "tle_line1": "1 33321U 08041B   25354.95474639  .00001281  00000+0  16256-3 0  9995",
        "tle_line2": "2 33321  97.6396 346.5856 0037996  49.8273 310.6258 14.82842697931995"
      },
      "geometry": {
        "type": "Point",
        "coordinates": [
          177.1315242896093,
          52.8421228232298
        ]
      }
    },
    {
      "type": "Feature",
      "properties": {
        "norad_id": 33331,
        "name": "GEOEYE 1",
        "group": "resource",
        "lat": -80.66669157747963,
        "lon": 126.84879020974121,
        "alt_km": 683.5674349699566,
        "timestamp": "2025-12-21T07:34:34.197254+00:00",
        "meta_object_name": "GEOEYE 1",
        "meta_object_id": "2008-042A",
        "meta_epoch": "2025-12-20T22:07:42.086496",
        "meta_mean_motion": 14.64710239,
        "meta_eccentricity": 0.00028307,
        "meta_inclination": 98.1243,
        "meta_ra_of_asc_node": 66.0995,
        "meta_arg_of_pericenter": 249.0579,
        "meta_mean_anomaly": 111.0321,
        "meta_ephemeris_type": 0,
        "meta_classification_type": "U",
        "meta_norad_cat_id": 33331,
        "meta_element_set_no": 999,
        "meta_rev_at_epoch": 92405,
        "meta_bstar": 8.4230938e-05,
        "meta_mean_motion_dot": 4.01e-06,
        "meta_mean_motion_ddot": 0,
        "tle_line1": "1 33331U 08042A   25354.92201489  .00000401  00000+0  84231-4 0  9997",
        "tle_line2": "2 33331  98.1243  66.0995 0002830 249.0579 111.0321 14.64710239924052"
      },
      "geometry": {
        "type": "Point",
        "coordinates": [
          126.84879020974121,
          -80.66669157747963
        ]
      }
    },
    {
      "type": "Feature",
      "properties": {
        "norad_id": 33396,
        "name": "THEOS",
        "group": "resource",
        "lat": -15.399858834696266,
        "lon": -129.2326504673398,
        "alt_km": 829.8646011180099,
        "timestamp": "2025-12-21T07:34:34.197264+00:00",
        "meta_object_name": "THEOS",
        "meta_object_id": "2008-049A",
        "meta_epoch": "2025-12-20T22:12:13.765248",
        "meta_mean_motion": 14.20098263,
        "meta_eccentricity": 0.00011859,
        "meta_inclination": 98.5862,
        "meta_ra_of_asc_node": 52.7735,
        "meta_arg_of_pericenter": 96.1755,
        "meta_mean_anomaly": 263.9557,
        "meta_ephemeris_type": 0,
        "meta_classification_type": "U",
        "meta_norad_cat_id": 33396,
        "meta_element_set_no": 999,
        "meta_rev_at_epoch": 89266,
        "meta_bstar": 7.0472094e-05,
        "meta_mean_motion_dot": 1.08e-06,
        "meta_mean_motion_ddot": 0,
        "tle_line1": "1 33396U 08049A   25354.92515932  .00000108  00000+0  70472-4 0  9992",
        "tle_line2": "2 33396  98.5862  52.7735 0001185  96.1755 263.9557 14.20098263892664"
      },
      "geometry": {
        "type": "Point",
        "coordinates": [
          -129.2326504673398,
          -15.399858834696266
        ]
      }
    }
  ]
}